[{"OBJECT_NAME":"STARLINK-1680","OBJECT_ID":"2020-070AC","EPOCH":"2026-03-10T00:00:02.999808","MEAN_MOTION":15.76401356,"ECCENTRICITY":0.00075058,"INCLINATION":53.0447,"RA_OF_ASC_NODE":107.962,"ARG_OF_PERICENTER":15.0582,"MEAN_ANOMALY":219.3714,"EPHEMERIS_TYPE":0,"CLASSIFICATION_TYPE":"U","NORAD_CAT_ID":46558,"ELEMENT_SET_NO":999,"REV_AT_EPOCH":596,"BSTAR":0.0012210481,"MEAN_MOTION_DOT":0.00201352,"MEAN_MOTION_DDOT":0},{"OBJECT_NAME":"STARLINK-11692 [DTC]","OBJECT_ID":"2025-127M","EPOCH":"2026-03-09T08:58:01.775424","MEAN_MOTION":15.71154898,"ECCENTRICITY":0.00031503,"INCLINATION":42.999,"RA_OF_ASC_NODE":86.3496,"ARG_OF_PERICENTER":250.0332,"MEAN_ANOMALY":110.0197,"EPHEMERIS_TYPE":0,"CLASSIFICATION_TYPE":"U","NORAD_CAT_ID":64381,"ELEMENT_SET_NO":999,"REV_AT_EPOCH":4356,"BSTAR":0.0027225226,"MEAN_MOTION_DOT":0.00369752,"MEAN_MOTION_DDOT":0}]
